{
  "type": "FeatureCollection",
  "features": [
    {
      "type": "Feature",
      "properties": {
        "norad_id": 60182,
        "name": "ALOS-4 (DAICHI-4)",
        "group": "resource",
        "lat": -19.541163216924268,
        "lon": -89.98707968530778,
        "alt_km": 636.4384099824501,
        "timestamp": "2025-12-24T03:53:29.300373+00:00",
        "meta_object_name": "ALOS-4 (DAICHI-4)",
        "meta_object_id": "2024-123A",
        "meta_epoch": "2025-12-20T19:27:23.065632",
        "meta_mean_motion": 14.79476706,
        "meta_eccentricity": 0.00013885,
        "meta_inclination": 97.9224,
        "meta_ra_of_asc_node": 89.5428,
        "meta_arg_of_pericenter": 101.3368,
        "meta_mean_anomaly": 258.8,
        "meta_ephemeris_type": 0,
        "meta_classification_type": "U",
        "meta_norad_cat_id": 60182,
        "meta_element_set_no": 999,
        "meta_rev_at_epoch": 7950,
        "meta_bstar": 0.00018386978,
        "meta_mean_motion_dot": 1.322e-05,
        "meta_mean_motion_ddot": 0,
        "tle_line1": "1 60182U 24123A   25354.81068363  .00001322  00000+0  18387-3 0  9990",
        "tle_line2": "2 60182  97.9224  89.5428 0001388 101.3368 258.8000 14.79476706 79505"
      },
      "geometry": {
        "type": "Point",
        "coordinates": [
          -89.98707968530778,
          -19.541163216924268
        ]
      }
    },
    {
      "type": "Feature",
      "properties": {
        "norad_id": 60452,
        "name": "LEGION 3",
        "group": "resource",
        "lat": 18.91670641335409,
        "lon": -91.05013478258437,
        "alt_km": 522.1737139606957,
        "timestamp": "2025-12-24T03:53:29.300384+00:00",
        "meta_object_name": "LEGION 3",
        "meta_object_id": "2024-146A",
        "meta_epoch": "2025-12-23T18:16:54.590880",
        "meta_mean_motion": 15.15867251,
        "meta_eccentricity": 0.0015716,
        "meta_inclination": 45.0003,
        "meta_ra_of_asc_node": 251.0419,
        "meta_arg_of_pericenter": 257.5096,
        "meta_mean_anomaly": 102.4025,
        "meta_ephemeris_type": 0,
        "meta_classification_type": "U",
        "meta_norad_cat_id": 60452,
        "meta_element_set_no": 999,
        "meta_rev_at_epoch": 7540,
        "meta_bstar": 0.00025963,
        "meta_mean_motion_dot": 4.803e-05,
        "meta_mean_motion_ddot": 0,
        "tle_line1": "1 60452U 24146A   25357.76174295  .00004803  00000+0  25963-3 0  9999",
        "tle_line2": "2 60452  45.0003 251.0419 0015716 257.5096 102.4025 15.15867251 75408"
      },
      "geometry": {
        "type": "Point",
        "coordinates": [
          -91.05013478258437,
          18.91670641335409
        ]
      }
    },
    {
      "type": "Feature",
      "properties": {
        "norad_id": 60453,
        "name": "LEGION 4",
        "group": "resource",
        "lat": 18.36235537836375,
        "lon": 0.04922763090296894,
        "alt_km": 509.87421891406757,
        "timestamp": "2025-12-24T03:53:29.300396+00:00",
        "meta_object_name": "LEGION 4",
        "meta_object_id": "2024-146B",
        "meta_epoch": "2025-12-23T16:42:17.170848",
        "meta_mean_motion": 15.15935165,
        "meta_eccentricity": 0.0008282,
        "meta_inclination": 45.0394,
        "meta_ra_of_asc_node": 343.1762,
        "meta_arg_of_pericenter": 11.6165,
        "meta_mean_anomaly": 348.4904,
        "meta_ephemeris_type": 0,
        "meta_classification_type": "U",
        "meta_norad_cat_id": 60453,
        "meta_element_set_no": 999,
        "meta_rev_at_epoch": 7424,
        "meta_bstar": 0.00032875,
        "meta_mean_motion_dot": 6.154e-05,
        "meta_mean_motion_ddot": 0,
        "tle_line1": "1 60453U 24146B   25357.69603207  .00006154  00000+0  32875-3 0  9993",
        "tle_line2": "2 60453  45.0394 343.1762 0008282  11.6165 348.4904 15.15935165 74241"
      },
      "geometry": {
        "type": "Point",
        "coordinates": [
          0.04922763090296894,
          18.36235537836375
        ]
      }
    },
    {
      "type": "Feature",
      "properties": {
        "norad_id": 60989,
        "name": "SENTINEL-2C",
        "group": "resource",
        "lat": 52.899764857109865,
        "lon": -98.02353316128153,
        "alt_km": 783.3010904328758,
        "timestamp": "2025-12-24T03:53:29.300407+00:00",
        "meta_object_name": "SENTINEL-2C",
        "meta_object_id": "2024-157A",
        "meta_epoch": "2025-12-22T16:03:33.313248",
        "meta_mean_motion": 14.30821394,
        "meta_eccentricity": 0.00011973,
        "meta_inclination": 98.5671,
        "meta_ra_of_asc_node": 69.0082,
        "meta_arg_of_pericenter": 95.1447,
        "meta_mean_anomaly": 264.9872,
        "meta_ephemeris_type": 0,
        "meta_classification_type": "U",
        "meta_norad_cat_id": 60989,
        "meta_element_set_no": 999,
        "meta_rev_at_epoch": 6774,
        "meta_bstar": 7.0243627e-05,
        "meta_mean_motion_dot": 1.41e-06,
        "meta_mean_motion_ddot": 0,
        "tle_line1": "1 60989U 24157A   25356.66913557  .00000141  00000+0  70244-4 0  9990",
        "tle_line2": "2 60989  98.5671  69.0082 0001197  95.1447 264.9872 14.30821394 67740"
      },
      "geometry": {
        "type": "Point",
        "coordinates": [
          -98.02353316128153,
          52.899764857109865
        ]
      }
    },
    {
      "type": "Feature",
      "properties": {
        "norad_id": 61735,
        "name": "IONOSFERA-M 1",
        "group": "resource",
        "lat": 58.70439354490226,
        "lon": -146.73694738514772,
        "alt_km": 810.2997617342062,
        "timestamp": "2025-12-24T03:53:29.300422+00:00",
        "meta_object_name": "IONOSFERA-M 1",
        "meta_object_id": "2024-199A",
        "meta_epoch": "2025-12-23T20:51:35.296992",
        "meta_mean_motion": 14.22716367,
        "meta_eccentricity": 4.11e-05,
        "meta_inclination": 98.7404,
        "meta_ra_of_asc_node": 227.6316,
        "meta_arg_of_pericenter": 6.8007,
        "meta_mean_anomaly": 353.3176,
        "meta_ephemeris_type": 0,
        "meta_classification_type": "U",
        "meta_norad_cat_id": 61735,
        "meta_element_set_no": 999,
        "meta_rev_at_epoch": 10277,
        "meta_bstar": 4.5179e-05,
        "meta_mean_motion_dot": 5.7e-07,
        "meta_mean_motion_ddot": 0,
        "tle_line1": "1 61735U 24199A   25357.86915853  .00000057  00000+0  45179-4 0  9995",
        "tle_line2": "2 61735  98.7404 227.6316 0000411   6.8007 353.3176 14.22716367102774"
      },
      "geometry": {
        "type": "Point",
        "coordinates": [
          -146.73694738514772,
          58.70439354490226
        ]
      }
    },
    {
      "type": "Feature",
      "properties": {
        "norad_id": 61736,
        "name": "IONOSFERA-M 2",
        "group": "resource",
        "lat": -61.44113193525213,
        "lon": 31.418009467986163,
        "alt_km": 824.423562128105,
        "timestamp": "2025-12-24T03:53:29.300433+00:00",
        "meta_object_name": "IONOSFERA-M 2",
        "meta_object_id": "2024-199B",
        "meta_epoch": "2025-12-23T21:41:27.371328",
        "meta_mean_motion": 14.22718584,
        "meta_eccentricity": 0.0001847,
        "meta_inclination": 98.7395,
        "meta_ra_of_asc_node": 227.5783,
        "meta_arg_of_pericenter": 96.2085,
        "meta_mean_anomaly": 263.9303,
        "meta_ephemeris_type": 0,
        "meta_classification_type": "U",
        "meta_norad_cat_id": 61736,
        "meta_element_set_no": 999,
        "meta_rev_at_epoch": 10590,
        "meta_bstar": 4.4416e-05,
        "meta_mean_motion_dot": 5.5e-07,
        "meta_mean_motion_ddot": 0,
        "tle_line1": "1 61736U 24199B   25357.90378902  .00000055  00000+0  44416-4 0  9990",
        "tle_line2": "2 61736  98.7395 227.5783 0001847  96.2085 263.9303 14.22718584105903"
      },
      "geometry": {
        "type": "Point",
        "coordinates": [
          31.418009467986163,
          -61.44113193525213
        ]
      }
    },
    {
      "type": "Feature",
      "properties": {
        "norad_id": 63772,
        "name": "BIOMASS",
        "group": "resource",
        "lat": 64.00293082401237,
        "lon": 19.91928257568093,
        "alt_km": 662.0365945963558,
        "timestamp": "2025-12-24T03:53:29.300444+00:00",
        "meta_object_name": "BIOMASS",
        "meta_object_id": "2025-090A",
        "meta_epoch": "2025-12-23T19:11:19.220064",
        "meta_mean_motion": 14.67540552,
        "meta_eccentricity": 0.0001092,
        "meta_inclination": 98.07,
        "meta_ra_of_asc_node": 182.648,
        "meta_arg_of_pericenter": 82.9216,
        "meta_mean_anomaly": 277.2113,
        "meta_ephemeris_type": 0,
        "meta_classification_type": "U",
        "meta_norad_cat_id": 63772,
        "meta_element_set_no": 999,
        "meta_rev_at_epoch": 3496,
        "meta_bstar": 0.00020853,
        "meta_mean_motion_dot": 1.135e-05,
        "meta_mean_motion_ddot": 0,
        "tle_line1": "1 63772U 25090A   25357.79952801  .00001135  00000+0  20853-3 0  9994",
        "tle_line2": "2 63772  98.0700 182.6480 0001092  82.9216 277.2113 14.67540552 34964"
      },
      "geometry": {
        "type": "Point",
        "coordinates": [
          19.91928257568093,
          64.00293082401237
        ]
      }
    }
  ]
}